BEIDOU 3 (C01)          
1 36287U 10001A   22105.88989325 -.00000276  00000+0  00000+0 0  9994
2 36287   1.9765  49.4280 0003542  13.5915 241.7825  1.00271186 44880
BEIDOU 5 (C06)          
1 36828U 10036A   22105.91175542 -.00000098  00000+0  00000+0 0  9997
2 36828  54.1899 176.8017 0027817 187.2492 276.3586  1.00264200 42955
BEIDOU 6 (C04)          
1 37210U 10057A   22106.20396510 -.00000108  00000+0  00000+0 0  9991
2 37210   0.7548  39.7091 0002017 196.4216 201.5915  1.00271401 42013
BEIDOU 7 (C07)          
1 37256U 10068A   22105.84160969 -.00000191  00000+0  00000+0 0  9991
2 37256  50.3238 290.3915 0018921 181.7464 143.3501  1.00269415 41513
BEIDOU 8 (C08)          
1 37384U 11013A   22105.90625637 -.00000184  00000+0  00000+0 0  9991
2 37384  60.2066  54.8749 0018285 194.2471  29.8943  1.00272373 40392
BEIDOU 9 (C09)          
1 37763U 11038A   22105.89968263 -.00000048  00000+0  00000+0 0  9991
2 37763  54.4724 179.2858 0095648 227.1233 214.2688  1.00291775 39371
BEIDOU 10 (C10)         
1 37948U 11073A   22105.90714240 -.00000142  00000+0  00000+0 0  9996
2 37948  50.4384 290.0250 0077574 217.2718 118.7413  1.00266894 38128
BEIDOU 11 (C05)         
1 38091U 12008A   22105.92202356  .00000062  00000+0  00000+0 0  9997
2 38091   1.4257  65.6285 0014947 322.9835 206.0576  1.00274049 37206
BEIDOU 12 (C11)         
1 38250U 12018A   22106.06834578 -.00000070  00000+0  00000+0 0  9998
2 38250  56.7101 355.6203 0021393 257.8037 246.3332  1.86234417 67927
BEIDOU 13 (C12)         
1 38251U 12018B   22106.01870922 -.00000069  00000+0  00000+0 0  9995
2 38251  56.6281 354.9510 0012292 264.4036 250.7006  1.86234269 67922
BEIDOU 15 (C14)         
1 38775U 12050B   22105.66185492  .00000081  00000+0  00000+0 0  9996
2 38775  55.3630 113.7968 0015320 318.9419 153.4277  1.86231335 65298
BEIDOU 16 (C02)         
1 38953U 12059A   22106.09393994 -.00000168  00000+0  00000+0 0  9996
2 38953   1.8338  84.4595 0013356 295.3923 302.1288  1.00267752 34774
BEIDOU 17 (C31)         
1 40549U 15019A   22105.90640198 -.00000137  00000+0  00000+0 0  9995
2 40549  51.9906 313.4799 0035805 188.1115 121.7103  1.00255950 25803
BEIDOU 18 (C57)         
1 40748U 15037A   22105.87332142 -.00000070  00000+0  00000+0 0  9995
2 40748  55.8828 353.8596 0005653  15.5107 311.6284  1.86233311 45741
BEIDOU 19 (C58)         
1 40749U 15037B   22105.45917330 -.00000070  00000+0  00000+0 0  9998
2 40749  55.8856 353.8629 0006142 341.2962 202.9626  1.86232231 45733
BEIDOU 20 (C18)         
1 40938U 15053A   22105.45001620 -.00000126  00000+0  00000+0 0  9994
2 40938  51.6004 276.5923 0044783 192.7492 350.9517  1.00260577 24077
BEIDOU IGSO-6 (C13)     
1 41434U 16021A   22105.96411404 -.00000146  00000+0  00000+0 0  9995
2 41434  58.0138  53.4836 0044809 220.4270  10.1707  1.00294942 22207
BEIDOU-2 G7 (C03)       
1 41586U 16037A   22105.86936626 -.00000349  00000+0  00000+0 0  9992
2 41586   1.8387  68.8253 0008962 358.4010 200.2333  1.00276518 21513
BEIDOU-3 M1 (C19)       
1 43001U 17069A   22105.53803823  .00000082  00000+0  00000+0 0  9991
2 43001  55.5170 113.7933 0012360 289.8936 255.6735  1.86231686 30228
BEIDOU-3 M2 (C20)       
1 43002U 17069B   22105.86414611  .00000080  00000+0  00000+0 0  9999
2 43002  55.5165 113.8184 0010393 306.8499 140.4713  1.86231418 30220
BEIDOU-3 M3 (C27)       
1 43107U 18003A   22106.21060473 -.00000072  00000+0  00000+0 0  9999
2 43107  55.3320 354.7935 0005651  45.2618  80.3922  1.86232458 28995
BEIDOU-3 M4 (C28)       
1 43108U 18003B   22105.95170677 -.00000072  00000+0  00000+0 0  9998
2 43108  55.3256 354.7912 0002498 278.0817  78.2365  1.86230919 28988
BEIDOU-3 M5 (C21)       
1 43207U 18018A   22105.32899515  .00000083  00000+0  00000+0 0  9995
2 43207  55.4761 113.9166 0007321 321.9597  38.0355  1.86231656 28363
BEIDOU-3 M6 (C22)       
1 43208U 18018B   22104.85867467  .00000085  00000+0  00000+0 0  9996
2 43208  55.4747 113.9372 0010300 298.7413  61.2046  1.86231778 28355
BEIDOU-3 M7 (C29)       
1 43245U 18029A   22105.80550169 -.00000070  00000+0  00000+0 0  9998
2 43245  55.2487 352.5803 0001456  11.7927 112.6378  1.86232561 27528
BEIDOU-3 M8 (C30)       
1 43246U 18029B   22105.82827022 -.00000070  00000+0  10000-3 0  9991
2 43246  55.2458 352.6089 0005261   2.4670 183.7081  1.86232750 27513
BEIDOU IGSO-7 (C16)     
1 43539U 18057A   22105.85803227 -.00000101  00000+0  00000+0 0  9991
2 43539  55.0722 176.2585 0047566 225.7459 222.4627  1.00277160 13882
BEIDOU-3 M9 (C23)       
1 43581U 18062A   22105.82707019  .00000002  00000+0  00000+0 0  9992
2 43581  54.2947 234.2267 0002080 287.1439 109.0697  1.86231812 25263
BEIDOU-3 M10 (C24)      
1 43582U 18062B   22105.64435500  .00000001  00000+0  00000+0 0  9995
2 43582  54.2968 234.2230 0005352  21.7956 343.6474  1.86232081 25266
BEIDOU-3 M11 (C25)      
1 43602U 18067A   22106.13333065  .00000005  00000+0  00000+0 0  9995
2 43602  54.3775 232.8153 0007228  14.1749   0.6194  1.86231665 24764
BEIDOU-3 M12 (C26)      
1 43603U 18067B   22106.24127030  .00000006  00000+0  00000+0 0  9992
2 43603  54.3758 232.7790 0004262   7.9159 349.6347  1.86231607 24775
BEIDOU-3 M13 (C32)      
1 43622U 18072A   22105.92413272  .00000079  00000+0  00000+0 0  9999
2 43622  55.4424 113.4538 0008936 285.9734 248.4105  1.86231606 24285
BEIDOU-3 M14 (C33)      
1 43623U 18072B   22106.15499111  .00000078  00000+0  00000+0 0  9991
2 43623  55.4447 113.4379 0006793 303.7891 115.6102  1.86231624 24299
BEIDOU-3 M15 (C34)      
1 43647U 18078A   22105.86933093 -.00000070  00000+0  10000-3 0  9990
2 43647  55.1431 352.7420 0007630   5.9672 117.3931  1.86233044 23790
BEIDOU-3 M16 (C35)      
1 43648U 18078B   22105.46910458 -.00000070  00000+0  00000+0 0  9992
2 43648  55.1397 352.7619 0005724  13.3321 109.5992  1.86232206 23809
BEIDOU-3 G1 (C59)       
1 43683U 18085A   22105.96141213 -.00000273  00000+0  00000+0 0  9994
2 43683   0.8460 177.1210 0002540 324.5804 188.5437  1.00273983 12776
BEIDOU-3 M17 (C36)      
1 43706U 18093A   22105.97438944  .00000003  00000+0  00000+0 0  9990
2 43706  54.3779 234.1037 0008233 275.3026  84.5682  1.86231761 23157
BEIDOU-3 M18 (C37)      
1 43707U 18093B   22105.85828578  .00000002  00000+0  00000+0 0  9993
2 43707  54.3785 234.0974 0006654 310.9645  62.2213  1.86232119 23164
BEIDOU-3 IGSO-1 (C38)   
1 44204U 19023A   22106.03064738 -.00000214  00000+0  00000+0 0  9997
2 44204  56.4719  53.6406 0019837 205.1576  75.7410  1.00276874 11085
BEIDOU-2 G8             
1 44231U 19027A   22105.89076543 -.00000242  00000+0  00000+0 0  9992
2 44231   0.7132  72.9752 0004147 138.2033  98.0953  1.00273126 10790
BEIDOU-3 IGSO-2 (C39)   
1 44337U 19035A   22105.91605318 -.00000099  00000+0  00000+0 0  9999
2 44337  55.1114 172.2820 0023086 194.7870 285.9465  1.00272143 10423
BEIDOU-3 M23 (C45)      
1 44542U 19061A   22105.37305127 -.00000001  00000+0  00000+0 0  9994
2 44542  54.6040 234.2536 0007480 344.8213  15.1191  1.86231154 17411
BEIDOU-3 M24 (C46)      
1 44543U 19061B   22105.77729462  .00000002  00000+0  00000+0 0  9991
2 44543  54.6034 234.2082 0004742 343.2568 198.9318  1.86231602 17414
BEIDOU-3 IGSO-3         
1 44709U 19073A   22105.33707374 -.00000157  00000+0  00000+0 0  9990
2 44709  57.3675 297.0328 0021342 172.0572 335.3053  1.00275484  9176
BEIDOU-3 M21            
1 44793U 19078A   22106.03243563 -.00000070  00000+0  10000-3 0  9990
2 44793  54.9917 352.7664 0007561  10.7939 175.9042  1.86232170 16280
BEIDOU-3 M22            
1 44794U 19078B   22105.65686072 -.00000071  00000+0  00000+0 0  9990
2 44794  54.9661 352.7706 0005494   6.8233 199.6198  1.86232708 16271
BEIDOU-3 M19            
1 44864U 19090A   22105.87140707  .00000080  00000+0  00000+0 0  9995
2 44864  55.3767 113.6694 0018953 271.0209 273.7644  1.86231882 15860
BEIDOU-3 M20            
1 44865U 19090B   22106.19043839  .00000077  00000+0  00000+0 0  9996
2 44865  55.3794 113.6909 0017321 284.0457 204.5127  1.86231832 15848
BEIDOU-3 G2             
1 45344U 20017A   22105.88243792 -.00000140  00000+0  00000+0 0  9997
2 45344   2.1127 348.9684 0003725  83.9312 168.8129  1.00270892  7988
BEIDOU-3 G3             
1 45807U 20040A   22106.02747972 -.00000352  00000+0  00000+0 0  9998
2 45807   1.5863 301.8073 0006105 339.9138  42.7703  1.00277923  6818
